STARLINK-2273
1 47993U 21024S   26090.58454174  .00083701  00000+0  20618-2 0  9993
2 47993  53.1551 193.9772 0001358  19.8110 340.2948 15.39881813278485
STARLINK-34695
1 64916U 25157N   26090.41165254  .00046806  00000+0  11652-2 0  9991
2 64916  53.1597 240.9289 0001609  92.5956 267.5233 15.39820884 39507
STARLINK-36689
1 67878U 26034AE  26090.83335647 -.01904358  00000+0 -52748-1 0  9995
2 67878  53.1598 101.5982 0001206  96.3360 238.2767 15.39848542  6012
